NORAD_CAT_ID,OBJECT_NAME,OBJECT_TYPE,EPOCH,MEAN_MOTION,ECCENTRICITY,INCLINATION,RA_OF_ASC_NODE,ARG_OF_PERICENTER,MEAN_ANOMALY,BSTAR,MEAN_MOTION_DOT,MEAN_MOTION_DDOT,TLE_LINE0,TLE_LINE1,TLE_LINE2,SEMIMAJOR_AXIS,PERIOD,APOGEE,PERIGEE,DECAYED
52836.0,STARLINK-4043,PAYLOAD,2023-01-09 11:03:22,15.08838632,0.0002381,53.2159,180.1592,40.6082,319.5087,-3.046e-05,-7.73e-06,0.0,0 STARLINK-4043,1 52836U 22062G   23009.46068070 -.00000773  00000-0 -30460-4 0  9997,2 52836  53.2159 180.1592 0002381  40.6082 319.5087 15.08838632 31383,6917.885,95.438,541.3969999999998,538.102,0.0
52836.0,STARLINK-4043,PAYLOAD,2023-01-09 17:24:55,15.08841168,0.0002504,53.2158,178.9704,42.9649,317.1538,-2.6734e-05,-7.14e-06,0.0,0 STARLINK-4043,1 52836U 22062G   23009.72563952 -.00000714  00000-0 -26734-4 0  9999,2 52836  53.2158 178.9704 0002504  42.9649 317.1538 15.08841168 31421,6917.877,95.437,541.474,538.01,0.0
52836.0,STARLINK-4043,PAYLOAD,2023-01-09 20:35:41,15.08840866,0.0002333,53.2162,178.37599999999995,37.7796,322.336,-8.621200000000001e-05,-1.66e-05,0.0,0 STARLINK-4043,1 52836U 22062G   23009.85812039 -.00001660  00000-0 -86212-4 0  9994,2 52836  53.2162 178.3760 0002333  37.7796 322.3360 15.08840866 31444,6917.8780000000015,95.437,541.357,538.129,0.0
52836.0,STARLINK-4043,PAYLOAD,2023-01-10 04:32:35,15.08880583,6.06e-05,53.2162,176.8883,84.3102,275.7959,-0.00051715,-8.518e-05,0.0,0 STARLINK-4043,1 52836U 22062G   23010.18930031 -.00008518  00000-0 -51715-3 0  9993,2 52836  53.2162 176.8883 0000606  84.3102 275.7959 15.08880583 31493,6917.755999999999,95.435,540.0409999999998,539.202,0.0
52836.0,STARLINK-4043,PAYLOAD,2023-01-10 20:26:27,15.08845942,0.0002172,53.2167,173.9154,35.3451,324.7685,0.00018381,2.639e-05,0.0,0 STARLINK-4043,1 52836U 22062G   23010.85170379  .00002639  00000-0  18381-3 0  9996,2 52836  53.2167 173.9154 0002172  35.3451 324.7685 15.08845942 31592,6917.861999999999,95.437,541.23,538.225,0.0
52836.0,STARLINK-4043,PAYLOAD,2023-01-11 17:06:29,15.08828694,0.0002198,53.2167,170.0497,40.8562,319.2594,2.5967e-05,1.25e-06,0.0,0 STARLINK-4043,1 52836U 22062G   23011.71284437  .00000125  00000-0  25967-4 0  9990,2 52836  53.2167 170.0497 0002198  40.8562 319.2594 15.08828694 31720,6917.915,95.438,541.3009999999998,538.259,0.0
52836.0,STARLINK-4043,PAYLOAD,2023-01-11 20:17:16,15.08829217,0.0002134,53.2174,169.4539,40.9421,319.1731,-3.0518e-06,-3.37e-06,0.0,0 STARLINK-4043,1 52836U 22062G   23011.84532613 -.00000337  00000-0 -30518-5 0  9992,2 52836  53.2174 169.4539 0002134  40.9421 319.1731 15.08829217 31748,6917.913000000001,95.438,541.255,538.302,0.0
52836.0,STARLINK-4043,PAYLOAD,2023-01-12 16:57:17,15.08827087,0.0002237,53.2149,165.5889,43.1485,316.9682,-0.00010791,-2.005e-05,0.0,0 STARLINK-4043,1 52836U 22062G   23012.70645692 -.00002005  00000-0 -10791-3 0  9993,2 52836  53.2149 165.5889 0002237  43.1485 316.9682 15.08827087 31871,6917.92,95.438,541.332,538.237,0.0
52836.0,STARLINK-4043,PAYLOAD,2023-01-13 13:37:18,15.08833266,0.0002145,53.2127,161.7231,43.8262,316.29,8.808600000000001e-05,1.114e-05,0.0,0 STARLINK-4043,1 52836U 22062G   23013.56757494  .00001114  00000-0  88086-4 0  9993,2 52836  53.2127 161.7231 0002145  43.8262 316.2900 15.08833266 32002,6917.901,95.438,541.25,538.2819999999999,0.0
52836.0,STARLINK-4043,PAYLOAD,2023-01-13 16:48:04,15.08837294,0.0002164,53.214,161.1278,41.5191,318.5965,0.00019137,2.759e-05,0.0,0 STARLINK-4043,1 52836U 22062G   23013.70005032  .00002759  00000-0  19137-3 0  9999,2 52836  53.2140 161.1278 0002164  41.5191 318.5965 15.08837294 32022,6917.889,95.438,541.251,538.257,0.0
52836.0,STARLINK-4043,PAYLOAD,2023-01-14 16:38:52,15.08834423,0.0001821999999999,53.2168,156.6713,53.6788,306.4372,8.6001e-05,1.081e-05,0.0,0 STARLINK-4043,1 52836U 22062G   23014.69366463  .00001081  00000-0  86001-4 0  9998,2 52836  53.2168 156.6713 0001822  53.6788 306.4372 15.08834423 32176,6917.897,95.438,541.023,538.502,0.0
52836.0,STARLINK-4043,PAYLOAD,2023-01-15 13:18:53,15.08841557,0.0001914,53.215,152.8029,50.5863,309.5298,0.00010072,1.315e-05,0.0,0 STARLINK-4043,1 52836U 22062G   23015.55478391  .00001315  00000-0  10072-3 0  9992,2 52836  53.2150 152.8029 0001914  50.5863 309.5298 15.08841557 32309,6917.876,95.437,541.065,538.4169999999999,0.0
52836.0,STARLINK-4043,PAYLOAD,2023-01-15 16:29:38,15.08852875,0.0002029999999999,53.2147,152.2064,42.8387,317.2763,0.00011994,1.622e-05,0.0,0 STARLINK-4043,1 52836U 22062G   23015.68725606  .00001622  00000-0  11994-3 0  9995,2 52836  53.2147 152.2064 0002030  42.8387 317.2763 15.08852875 32323,6917.840999999999,95.437,541.11,538.302,0.0
52836.0,STARLINK-4043,PAYLOAD,2023-01-16 02:01:58,15.08841951,0.0001816,53.2151,150.42600000000002,58.3753,301.7416,0.00015973,2.255e-05,0.0,0 STARLINK-4043,1 52836U 22062G   23016.08470207  .00002255  00000-0  15973-3 0  9998,2 52836  53.2151 150.4260 0001816  58.3753 301.7416 15.08841951 32388,6917.874,95.437,540.996,538.4830000000001,0.0
52836.0,STARLINK-4043,PAYLOAD,2023-01-16 13:09:40,15.08837013,0.000187,53.216,148.3454,64.066,296.0525,9.6292e-05,1.245e-05,0.0,0 STARLINK-4043,1 52836U 22062G   23016.54838735  .00001245  00000-0  96292-4 0  9995,2 52836  53.2160 148.3454 0001870  64.0660 296.0525 15.08837013 32459,6917.89,95.438,541.048,538.461,0.0
52836.0,STARLINK-4043,PAYLOAD,2023-01-16 17:55:49,15.08851354,0.0001719,53.2148,147.4483,58.7642,301.3518,0.00013496,1.861e-05,0.0,0 STARLINK-4043,1 52836U 22062G   23016.74709552  .00001861  00000-0  13496-3 0  9999,2 52836  53.2148 147.4483 0001719  58.7642 301.3518 15.08851354 32488,6917.846,95.437,540.9,538.5219999999999,0.0
52836.0,STARLINK-4043,PAYLOAD,2023-01-17 01:52:45,15.08833996,0.0001699999999999,53.2153,145.9615,64.4069,295.7099,6.979e-05,8.23e-06,0.0,0 STARLINK-4043,1 52836U 22062G   23017.07830876  .00000823  00000-0  69790-4 0  9996,2 52836  53.2153 145.9615 0001700  64.4069 295.7099 15.08833996 32539,6917.899,95.438,540.94,538.5880000000001,0.0
52836.0,STARLINK-4043,PAYLOAD,2023-01-17 14:35:51,15.08830302,0.0001671,53.2142,143.5849,64.6322,295.4843,2.1113000000000003e-05,4.8e-07,0.0,0 STARLINK-4043,1 52836U 22062G   23017.60823581  .00000048  00000-0  21113-4 0  9996,2 52836  53.2142 143.5849 0001671  64.6322 295.4843 15.08830302 32612,6917.91,95.438,540.931,538.619,0.0
52836.0,STARLINK-4043,PAYLOAD,2023-01-18 08:05:04,15.08850783,0.000118,53.2138,140.3146,50.1768,309.9328,0.00017308,2.469e-05,0.0,0 STARLINK-4043,1 52836U 22062G   23018.33685512  .00002469  00000-0  17308-3 0  9996,2 52836  53.2138 140.3146 0001180  50.1768 309.9328 15.08850783 32727,6917.847,95.437,540.529,538.896,0.0
52836.0,STARLINK-4043,PAYLOAD,2023-01-18 14:26:37,15.08848615,0.0002638,53.2155,139.1254,84.3668,275.7625,0.00011408,1.528e-05,0.0,0 STARLINK-4043,1 52836U 22062G   23018.60181830  .00001528  00000-0  11408-3 0  9990,2 52836  53.2155 139.1254 0002638  84.3668 275.7625 15.08848615 32764,6917.854,95.437,541.544,537.894,0.0
52836.0,STARLINK-4043,PAYLOAD,2023-01-19 07:55:53,15.08822321,0.0001384,53.2148,135.8514,86.9487,273.1664,9.1342e-05,1.165e-05,0.0,0 STARLINK-4043,1 52836U 22062G   23019.33047589  .00001165  00000-0  91342-4 0  9996,2 52836  53.2148 135.8514 0001384  86.9487 273.1664 15.08822321 32875,6917.934,95.439,540.757,538.842,0.0
52836.0,STARLINK-4043,PAYLOAD,2023-01-19 14:17:25,15.0883582,0.0001641999999999,53.212,134.66299999999998,88.0821,272.0359,9.6045e-05,1.241e-05,0.0,0 STARLINK-4043,1 52836U 22062G   23019.59542954  .00001241  00000-0  96045-4 0  9990,2 52836  53.2120 134.6630 0001642  88.0821 272.0359 15.08835820 32915,6917.893,95.438,540.894,538.622,0.0
52836.0,STARLINK-4043,PAYLOAD,2023-01-19 17:28:10,15.08844502,0.0001173,53.2146,134.066,90.621,269.4917,0.00015096,2.116e-05,0.0,0 STARLINK-4043,1 52836U 22062G   23019.72790216  .00002116  00000-0  15096-3 0  9999,2 52836  53.2146 134.0660 0001173  90.6210 269.4917 15.08844502 32939,6917.866999999999,95.437,540.543,538.92,0.0
52836.0,STARLINK-4043,PAYLOAD,2023-01-20 10:57:25,15.0883297,0.0001401,53.2156,130.7976,90.51,269.6053,3.7045e-05,3.02e-06,0.0,0 STARLINK-4043,1 52836U 22062G   23020.45655061  .00000302  00000-0  37045-4 0  9993,2 52836  53.2156 130.7976 0001401  90.5100 269.6053 15.08832970 33046,6917.901999999999,95.438,540.736,538.798,0.0
52836.0,STARLINK-4043,PAYLOAD,2023-01-20 14:08:11,15.08848903,0.0001558,53.2155,130.203,106.4329,253.6834,0.00018192,2.609e-05,0.0,0 STARLINK-4043,1 52836U 22062G   23020.58901673  .00002609  00000-0  18192-3 0  9993,2 52836  53.2155 130.2030 0001558 106.4329 253.6834 15.08848903 33069,6917.853,95.437,540.7959999999999,538.64,0.0
52836.0,STARLINK-4043,PAYLOAD,2023-01-20 23:40:30,15.08841388,0.0001603,53.2159,128.4174,89.9905,270.1271,9.0297e-05,1.149e-05,0.0,0 STARLINK-4043,1 52836U 22062G   23020.98646342  .00001149  00000-0  90297-4 0  9991,2 52836  53.2159 128.4174 0001603  89.9905 270.1271 15.08841388 33123,6917.876,95.437,540.85,538.632,0.0
52836.0,STARLINK-4043,PAYLOAD,2023-01-21 10:48:13,15.08832713,0.0001433,53.2173,126.3413,107.6181,252.4967,5.367e-05,5.66e-06,0.0,0 STARLINK-4043,1 52836U 22062G   23021.45015242  .00000566  00000-0  53670-4 0  9999,2 52836  53.2173 126.3413 0001433 107.6181 252.4967 15.08832713 33191,6917.903,95.438,540.759,538.776,0.0
52836.0,STARLINK-4043,PAYLOAD,2023-01-21 15:34:21,15.08845009,0.0001144,53.2152,125.4447,100.5966,259.5155,0.00013773,1.905e-05,0.0,0 STARLINK-4043,1 52836U 22062G   23021.64886181  .00001905  00000-0  13773-3 0  9995,2 52836  53.2152 125.4447 0001144 100.5966 259.5155 15.08845009 33220,6917.865,95.437,540.521,538.939,0.0
52836.0,STARLINK-4043,PAYLOAD,2023-01-22 05:52:51,15.08828804,0.0001433,53.2145,122.7684,88.93700000000001,271.1786,9.1842e-06,-1.42e-06,0.0,0 STARLINK-4043,1 52836U 22062G   23022.24503815 -.00000142  00000-0  91842-5 0  9990,2 52836  53.2145 122.7684 0001433  88.9370 271.1786 15.08828804 33318,6917.915,95.438,540.771,538.788,0.0
